[{"OBJECT_NAME":"STARLINK-36297","OBJECT_ID":"2026-022Z","EPOCH":"2026-03-03T15:51:28.064736","MEAN_MOTION":15.75209651,"ECCENTRICITY":0.00015664,"INCLINATION":97.2837,"RA_OF_ASC_NODE":96.397,"ARG_OF_PERICENTER":70.781,"MEAN_ANOMALY":289.3625,"EPHEMERIS_TYPE":0,"CLASSIFICATION_TYPE":"U","NORAD_CAT_ID":67671,"ELEMENT_SET_NO":999,"REV_AT_EPOCH":460,"BSTAR":0.0015730989,"MEAN_MOTION_DOT":0.0024147,"MEAN_MOTION_DDOT":0},{"OBJECT_NAME":"STARLINK-36616","OBJECT_ID":"2026-022AA","EPOCH":"2026-03-03T14:22:01.651872","MEAN_MOTION":15.75396764,"ECCENTRICITY":0.0001725,"INCLINATION":97.2841,"RA_OF_ASC_NODE":96.3274,"ARG_OF_PERICENTER":59.0649,"MEAN_ANOMALY":301.0785,"EPHEMERIS_TYPE":0,"CLASSIFICATION_TYPE":"U","NORAD_CAT_ID":67672,"ELEMENT_SET_NO":999,"REV_AT_EPOCH":459,"BSTAR":0.0028698,"MEAN_MOTION_DOT":0.00455625,"MEAN_MOTION_DDOT":0},{"OBJECT_NAME":"COSMOS 2600","OBJECT_ID":"2026-023A","EPOCH":"2026-03-03T23:05:24.755712","MEAN_MOTION":15.83078335,"ECCENTRICITY":0.00023391,"INCLINATION":96.6444,"RA_OF_ASC_NODE":138.7857,"ARG_OF_PERICENTER":357.8832,"MEAN_ANOMALY":2.2429,"EPHEMERIS_TYPE":0,"CLASSIFICATION_TYPE":"U","NORAD_CAT_ID":67674,"ELEMENT_SET_NO":999,"REV_AT_EPOCH":414,"BSTAR":0.00042731318,"MEAN_MOTION_DOT":0.00091678,"MEAN_MOTION_DDOT":0},{"OBJECT_NAME":"2026-023B","OBJECT_ID":"2026-023B","EPOCH":"2026-03-03T19:21:35.995104","MEAN_MOTION":15.22827574,"ECCENTRICITY":0.00191652,"INCLINATION":96.6371,"RA_OF_ASC_NODE":136.4361,"ARG_OF_PERICENTER":151.9701,"MEAN_ANOMALY":208.2574,"EPHEMERIS_TYPE":0,"CLASSIFICATION_TYPE":"U","NORAD_CAT_ID":67675,"ELEMENT_SET_NO":999,"REV_AT_EPOCH":396,"BSTAR":0.00065672953,"MEAN_MOTION_DOT":0.00015399,"MEAN_MOTION_DDOT":0},{"OBJECT_NAME":"2026-023C","OBJECT_ID":"2026-023C","EPOCH":"2026-03-03T22:28:59.416320","MEAN_MOTION":15.22933062,"ECCENTRICITY":0.00202539,"INCLINATION":96.6404,"RA_OF_ASC_NODE":136.574,"ARG_OF_PERICENTER":141.8952,"MEAN_ANOMALY":218.3723,"EPHEMERIS_TYPE":0,"CLASSIFICATION_TYPE":"U","NORAD_CAT_ID":67676,"ELEMENT_SET_NO":999,"REV_AT_EPOCH":414,"BSTAR":0.00061175498,"MEAN_MOTION_DOT":0.00014392,"MEAN_MOTION_DDOT":0},{"OBJECT_NAME":"2026-023D","OBJECT_ID":"2026-023D","EPOCH":"2026-03-03T22:32:28.752288","MEAN_MOTION":15.22754789,"ECCENTRICITY":0.00204541,"INCLINATION":96.6435,"RA_OF_ASC_NODE":136.5622,"ARG_OF_PERICENTER":146.762,"MEAN_ANOMALY":213.4908,"EPHEMERIS_TYPE":0,"CLASSIFICATION_TYPE":"U","NORAD_CAT_ID":67677,"ELEMENT_SET_NO":999,"REV_AT_EPOCH":397,"BSTAR":0.00070729564,"MEAN_MOTION_DOT":0.00016568,"MEAN_MOTION_DDOT":0},{"OBJECT_NAME":"2026-023E","OBJECT_ID":"2026-023E","EPOCH":"2026-03-03T22:29:37.262976","MEAN_MOTION":15.22922116,"ECCENTRICITY":0.00202154,"INCLINATION":96.6328,"RA_OF_ASC_NODE":136.5438,"ARG_OF_PERICENTER":146.2135,"MEAN_ANOMALY":214.0396,"EPHEMERIS_TYPE":0,"CLASSIFICATION_TYPE":"U","NORAD_CAT_ID":67678,"ELEMENT_SET_NO":999,"REV_AT_EPOCH":397,"BSTAR":0.00081644589,"MEAN_MOTION_DOT":0.00019233,"MEAN_MOTION_DDOT":0},{"OBJECT_NAME":"2026-023F","OBJECT_ID":"2026-023F","EPOCH":"2026-03-03T22:26:05.820576","MEAN_MOTION":15.23071504,"ECCENTRICITY":0.00221143,"INCLINATION":96.6338,"RA_OF_ASC_NODE":139.044,"ARG_OF_PERICENTER":141.079,"MEAN_ANOMALY":219.2046,"EPHEMERIS_TYPE":0,"CLASSIFICATION_TYPE":"U","NORAD_CAT_ID":67679,"ELEMENT_SET_NO":999,"REV_AT_EPOCH":396,"BSTAR":0.00075527551,"MEAN_MOTION_DOT":0.00017883,"MEAN_MOTION_DDOT":0},{"OBJECT_NAME":"2026-023G","OBJECT_ID":"2026-023G","EPOCH":"2026-03-03T22:27:05.219712","MEAN_MOTION":15.23032889,"ECCENTRICITY":0.00236497,"INCLINATION":96.6265,"RA_OF_ASC_NODE":139.0267,"ARG_OF_PERICENTER":137.6515,"MEAN_ANOMALY":222.6555,"EPHEMERIS_TYPE":0,"CLASSIFICATION_TYPE":"U","NORAD_CAT_ID":67680,"ELEMENT_SET_NO":999,"REV_AT_EPOCH":396,"BSTAR":0.00077700124,"MEAN_MOTION_DOT":0.00018398,"MEAN_MOTION_DDOT":0},{"OBJECT_NAME":"2026-023H","OBJECT_ID":"2026-023H","EPOCH":"2026-03-03T22:27:12.892032","MEAN_MOTION":15.22967754,"ECCENTRICITY":0.00237423,"INCLINATION":96.641,"RA_OF_ASC_NODE":139.0567,"ARG_OF_PERICENTER":137.0483,"MEAN_ANOMALY":223.2615,"EPHEMERIS_TYPE":0,"CLASSIFICATION_TYPE":"U","NORAD_CAT_ID":67681,"ELEMENT_SET_NO":999,"REV_AT_EPOCH":396,"BSTAR":0.00065639014,"MEAN_MOTION_DOT":0.00015498,"MEAN_MOTION_DDOT":0},{"OBJECT_NAME":"2026-023J","OBJECT_ID":"2026-023J","EPOCH":"2026-03-03T22:25:37.045056","MEAN_MOTION":15.23067741,"ECCENTRICITY":0.00238663,"INCLINATION":96.6365,"RA_OF_ASC_NODE":139.0614,"ARG_OF_PERICENTER":133.9365,"MEAN_ANOMALY":226.3848,"EPHEMERIS_TYPE":0,"CLASSIFICATION_TYPE":"U","NORAD_CAT_ID":67682,"ELEMENT_SET_NO":999,"REV_AT_EPOCH":396,"BSTAR":0.00081440871,"MEAN_MOTION_DOT":0.00019311,"MEAN_MOTION_DDOT":0},{"OBJECT_NAME":"ISS OBJECT XZ","OBJECT_ID":"1998-067XZ","EPOCH":"2026-03-03T09:58:19.786656","MEAN_MOTION":15.51247194,"ECCENTRICITY":0.00095043,"INCLINATION":51.6308,"RA_OF_ASC_NODE":103.0125,"ARG_OF_PERICENTER":164.7935,"MEAN_ANOMALY":195.3341,"EPHEMERIS_TYPE":0,"CLASSIFICATION_TYPE":"U","NORAD_CAT_ID":67683,"ELEMENT_SET_NO":999,"REV_AT_EPOCH":381,"BSTAR":0.0006749461,"MEAN_MOTION_DOT":0.0004007,"MEAN_MOTION_DDOT":0},{"OBJECT_NAME":"GXIBA-1","OBJECT_ID":"1998-067YA","EPOCH":"2026-03-03T06:26:38.282496","MEAN_MOTION":15.53164734,"ECCENTRICITY":0.00109781,"INCLINATION":51.6298,"RA_OF_ASC_NODE":103.5313,"ARG_OF_PERICENTER":154.9471,"MEAN_ANOMALY":205.2054,"EPHEMERIS_TYPE":0,"CLASSIFICATION_TYPE":"U","NORAD_CAT_ID":67684,"ELEMENT_SET_NO":999,"REV_AT_EPOCH":379,"BSTAR":0.0011656143,"MEAN_MOTION_DOT":0.00074906,"MEAN_MOTION_DDOT":0},{"OBJECT_NAME":"CORAL","OBJECT_ID":"1998-067YB","EPOCH":"2026-03-03T12:59:20.460192","MEAN_MOTION":15.51560114,"ECCENTRICITY":0.0011409,"INCLINATION":51.631,"RA_OF_ASC_NODE":102.3518,"ARG_OF_PERICENTER":161.3532,"MEAN_ANOMALY":198.7877,"EPHEMERIS_TYPE":0,"CLASSIFICATION_TYPE":"U","NORAD_CAT_ID":67685,"ELEMENT_SET_NO":999,"REV_AT_EPOCH":383,"BSTAR":0.00083964,"MEAN_MOTION_DOT":0.00050636,"MEAN_MOTION_DDOT":0},{"OBJECT_NAME":"ISS OBJECT YC","OBJECT_ID":"1998-067YC","EPOCH":"2026-03-03T09:48:37.762560","MEAN_MOTION":15.51946136,"ECCENTRICITY":0.00077529,"INCLINATION":51.6308,"RA_OF_ASC_NODE":102.9692,"ARG_OF_PERICENTER":129.123,"MEAN_ANOMALY":231.045,"EPHEMERIS_TYPE":0,"CLASSIFICATION_TYPE":"U","NORAD_CAT_ID":67686,"ELEMENT_SET_NO":999,"REV_AT_EPOCH":381,"BSTAR":0.00084429394,"MEAN_MOTION_DOT":0.00051568,"MEAN_MOTION_DDOT":0},{"OBJECT_NAME":"LEOPARD","OBJECT_ID":"1998-067YD","EPOCH":"2026-03-03T09:55:53.940864","MEAN_MOTION":15.51386771,"ECCENTRICITY":0.00077356,"INCLINATION":51.6311,"RA_OF_ASC_NODE":103.0024,"ARG_OF_PERICENTER":132.4796,"MEAN_ANOMALY":227.6848,"EPHEMERIS_TYPE":0,"CLASSIFICATION_TYPE":"U","NORAD_CAT_ID":67687,"ELEMENT_SET_NO":999,"REV_AT_EPOCH":373,"BSTAR":0.00071814867,"MEAN_MOTION_DOT":0.0004287,"MEAN_MOTION_DDOT":0},{"OBJECT_NAME":"ISS OBJECT YE","OBJECT_ID":"1998-067YE","EPOCH":"2026-03-03T09:50:56.473440","MEAN_MOTION":15.51755615,"ECCENTRICITY":0.00077001,"INCLINATION":51.6313,"RA_OF_ASC_NODE":102.98,"ARG_OF_PERICENTER":129.5648,"MEAN_ANOMALY":230.6023,"EPHEMERIS_TYPE":0,"CLASSIFICATION_TYPE":"U","NORAD_CAT_ID":67688,"ELEMENT_SET_NO":999,"REV_AT_EPOCH":373,"BSTAR":0.00081367548,"MEAN_MOTION_DOT":0.00049325,"MEAN_MOTION_DDOT":0},{"OBJECT_NAME":"PRC TEST SPACECRAFT 4","OBJECT_ID":"2026-024A","EPOCH":"2026-03-03T22:23:44.388096","MEAN_MOTION":14.91682981,"ECCENTRICITY":0.00061133,"INCLINATION":49.9859,"RA_OF_ASC_NODE":49.7939,"ARG_OF_PERICENTER":337.9424,"MEAN_ANOMALY":22.1254,"EPHEMERIS_TYPE":0,"CLASSIFICATION_TYPE":"U","NORAD_CAT_ID":67689,"ELEMENT_SET_NO":999,"REV_AT_EPOCH":372,"BSTAR":4.638283e-5,"MEAN_MOTION_DOT":2.27e-6,"MEAN_MOTION_DDOT":0},{"OBJECT_NAME":"CZ-2F R/B","OBJECT_ID":"2026-024B","EPOCH":"2026-03-03T23:18:49.276224","MEAN_MOTION":15.3406768,"ECCENTRICITY":0.01750306,"INCLINATION":49.9873,"RA_OF_ASC_NODE":43.2727,"ARG_OF_PERICENTER":251.167,"MEAN_ANOMALY":107.0236,"EPHEMERIS_TYPE":0,"CLASSIFICATION_TYPE":"U","NORAD_CAT_ID":67690,"ELEMENT_SET_NO":999,"REV_AT_EPOCH":381,"BSTAR":0.00043616258,"MEAN_MOTION_DOT":0.00023831,"MEAN_MOTION_DDOT":0},{"OBJECT_NAME":"CZ-2F DEB","OBJECT_ID":"2026-024C","EPOCH":"2026-03-03T20:30:05.050368","MEAN_MOTION":15.94512634,"ECCENTRICITY":0.01592912,"INCLINATION":49.904,"RA_OF_ASC_NODE":36.0965,"ARG_OF_PERICENTER":264.692,"MEAN_ANOMALY":93.5872,"EPHEMERIS_TYPE":0,"CLASSIFICATION_TYPE":"U","NORAD_CAT_ID":67691,"ELEMENT_SET_NO":999,"REV_AT_EPOCH":388,"BSTAR":0.0008223736,"MEAN_MOTION_DOT":0.01251856,"MEAN_MOTION_DDOT":1.0910837e-5},{"OBJECT_NAME":"CZ-2F DEB","OBJECT_ID":"2026-024D","EPOCH":"2026-03-03T23:19:56.017632","MEAN_MOTION":15.22949133,"ECCENTRICITY":0.02400167,"INCLINATION":50.3179,"RA_OF_ASC_NODE":46.749,"ARG_OF_PERICENTER":257.5555,"MEAN_ANOMALY":99.8453,"EPHEMERIS_TYPE":0,"CLASSIFICATION_TYPE":"U","NORAD_CAT_ID":67692,"ELEMENT_SET_NO":999,"REV_AT_EPOCH":375,"BSTAR":0.005110774,"MEAN_MOTION_DOT":0.00285456,"MEAN_MOTION_DDOT":0},{"OBJECT_NAME":"STARLINK-36748","OBJECT_ID":"2026-025A","EPOCH":"2026-03-03T22:50:08.926944","MEAN_MOTION":15.75290292,"ECCENTRICITY":0.00013054,"INCLINATION":97.2842,"RA_OF_ASC_NODE":174.2,"ARG_OF_PERICENTER":87.9111,"MEAN_ANOMALY":272.2304,"EPHEMERIS_TYPE":0,"CLASSIFICATION_TYPE":"U","NORAD_CAT_ID":67693,"ELEMENT_SET_NO":999,"REV_AT_EPOCH":503,"BSTAR":0.0014643465,"MEAN_MOTION_DOT":0.00225116,"MEAN_MOTION_DDOT":0},{"OBJECT_NAME":"STARLINK-36753","OBJECT_ID":"2026-025B","EPOCH":"2026-03-03T22:38:58.481952","MEAN_MOTION":15.75264602,"ECCENTRICITY":0.00011664,"INCLINATION":97.2843,"RA_OF_ASC_NODE":174.2105,"ARG_OF_PERICENTER":88.8601,"MEAN_ANOMALY":271.2798,"EPHEMERIS_TYPE":0,"CLASSIFICATION_TYPE":"U","NORAD_CAT_ID":67694,"ELEMENT_SET_NO":999,"REV_AT_EPOCH":504,"BSTAR":0.0020491499,"MEAN_MOTION_DOT":0.00318212,"MEAN_MOTION_DDOT":0}]
